[{"OBJECT_NAME":"IRIDIUM 160","OBJECT_ID":"2018-061A","EPOCH":"2026-03-09T22:03:46.499616","MEAN_MOTION":14.34217171,"ECCENTRICITY":0.00022327,"INCLINATION":86.3914,"RA_OF_ASC_NODE":98.3199,"ARG_OF_PERICENTER":91.5582,"MEAN_ANOMALY":268.587,"EPHEMERIS_TYPE":0,"CLASSIFICATION_TYPE":"U","NORAD_CAT_ID":43569,"ELEMENT_SET_NO":999,"REV_AT_EPOCH":39914,"BSTAR":-1.4041758e-5,"MEAN_MOTION_DOT":-2.0e-7,"MEAN_MOTION_DDOT":0},{"OBJECT_NAME":"SAPPHIRE (NO-45)","OBJECT_ID":"2001-043D","EPOCH":"2026-03-09T22:05:38.519808","MEAN_MOTION":14.31264507,"ECCENTRICITY":0.00088058,"INCLINATION":67.0559,"RA_OF_ASC_NODE":149.4844,"ARG_OF_PERICENTER":266.6628,"MEAN_ANOMALY":93.3466,"EPHEMERIS_TYPE":0,"CLASSIFICATION_TYPE":"U","NORAD_CAT_ID":26932,"ELEMENT_SET_NO":999,"REV_AT_EPOCH":27618,"BSTAR":8.3024891e-5,"MEAN_MOTION_DOT":1.37e-6,"MEAN_MOTION_DDOT":0}]
